ONEWEB-0685             
1 54679U 22166AP  25308.42548665  .00000127  00000+0  27573-3 0  9992
2 54679  87.9166 288.8292 0001618  87.6856 272.4463 13.21832230141723
ONEWEB-0712             
1 54680U 22166AQ  25308.41299430  .00000064  00000+0  13363-3 0  9998
2 54680  87.9000 273.5377 0001901 100.7891 259.3454 13.16596045142481
ONEWEB-0714             
1 54681U 22166AR  25308.43136924 -.00000019  00000+0 -76835-4 0  9995
2 54681  87.9172 288.8216 0001728  90.7485 269.3847 13.21827844141843
ONEWEB-0532             
1 55140U 23004A   25308.56601124  .00000008  00000+0 -11545-4 0  9995
2 55140  87.9136  50.5233 0001460  87.9342 272.1957 13.17643103138007
ONEWEB-0533             
1 55141U 23004B   25308.48155681  .00000185  00000+0  48007-3 0  9996
2 55141  87.8980  35.3027 0001602 107.6545 252.4759 13.12443132138588
ONEWEB-0541             
1 55142U 23004C   25308.41201932  .00000110  00000+0  27443-3 0  9990
2 55142  87.8854  65.8082 0001669  95.7244 264.4074 13.11415614136487
ONEWEB-0543             
1 55143U 23004D   25308.56938070 -.00000028  00000+0 -10424-3 0  9998
2 55143  87.9207  20.1134 0001947 108.2269 251.9075 13.18686479140099
ONEWEB-0544             
1 55144U 23004E   25308.48690723 -.00000042  00000+0 -13991-3 0  9998
2 55144  87.9209  20.1196 0002055 103.0243 257.1118 13.18686830140082
